{"type": "FeatureCollection", "features": [ {"type": "Feature", "properties": {"norad_id": 30396, "name": "FENGYUN 1C DEB", "group": "fengyun-1c-debris", "lat": -9.380246811734732, "lon": -179.764085509139, "alt_km": 943.0181611393709, "timestamp": "2025-12-24T03:53:29.923261+00:00", "meta": {"OBJECT_NAME": "FENGYUN 1C DEB", "OBJECT_ID": "1999-025ADK", "EPOCH": "2025-12-23T16:53:42.535392", "MEAN_MOTION": 13.87172036, "ECCENTRICITY": 0.0135241, "INCLINATION": 98.2239, "RA_OF_ASC_NODE": 1.2014, "ARG_OF_PERICENTER": 99.6021, "MEAN_ANOMALY": 321.3731, "EPHEMERIS_TYPE": 0, "CLASSIFICATION_TYPE": "U", "NORAD_CAT_ID": 30396, "ELEMENT_SET_NO": 999, "REV_AT_EPOCH": 95731, "BSTAR": 0.00011469, "MEAN_MOTION_DOT": 1.1e-06, "MEAN_MOTION_DDOT": 0}, "tle": {"line1": "1 30396U 99025ADK 25357.70396453  .00000110  00000+0  11469-3 0  9990", "line2": "2 30396  98.2239   1.2014 0135241  99.6021 321.3731 13.87172036957310"}}, "geometry": {"type": "Point", "coordinates": [-179.764085509139, -9.380246811734732]}}, {"type": "Feature", "properties": {"norad_id": 30397, "name": "FENGYUN 1C DEB", "group": "fengyun-1c-debris", "lat": -4.829059201407851, "lon": -35.29127886304821, "alt_km": 962.2444304074643, "timestamp": "2025-12-24T03:53:29.923272+00:00", "meta": {"OBJECT_NAME": "FENGYUN 1C DEB", "OBJECT_ID": "1999-025ADL", "EPOCH": "2025-12-23T08:25:48.240192", "MEAN_MOTION": 13.98620575, "ECCENTRICITY": 0.0149519, "INCLINATION": 98.4062, "RA_OF_ASC_NODE": 144.6806, "ARG_OF_PERICENTER": 62.7576, "MEAN_ANOMALY": 359.9495, "EPHEMERIS_TYPE": 0, "CLASSIFICATION_TYPE": "U", "NORAD_CAT_ID": 30397, "ELEMENT_SET_NO": 999, "REV_AT_EPOCH": 95913, "BSTAR": 0.0010799, "MEAN_MOTION_DOT": 1.668e-05, "MEAN_MOTION_DDOT": 0}, "tle": {"line1": "1 30397U 99025ADL 25357.35125278  .00001668  00000+0  10799-2 0  9990", "line2": "2 30397  98.4062 144.6806 0149519  62.7576 359.9495 13.98620575959131"}}, "geometry": {"type": "Point", "coordinates": [-35.29127886304821, -4.829059201407851]}}, {"type": "Feature", "properties": {"norad_id": 30398, "name": "FENGYUN 1C DEB", "group": "fengyun-1c-debris", "lat": 37.09985969833913, "lon": 82.40975743898692, "alt_km": 1035.097324212954, "timestamp": "2025-12-24T03:53:29.923283+00:00", "meta": {"OBJECT_NAME": "FENGYUN 1C DEB", "OBJECT_ID": "1999-025ADM", "EPOCH": "2025-12-23T05:18:23.198976", "MEAN_MOTION": 13.78708352, "ECCENTRICITY": 0.0172472, "INCLINATION": 99.7144, "RA_OF_ASC_NODE": 254.0023, "ARG_OF_PERICENTER": 268.6628, "MEAN_ANOMALY": 246.8587, "EPHEMERIS_TYPE": 0, "CLASSIFICATION_TYPE": "U", "NORAD_CAT_ID": 30398, "ELEMENT_SET_NO": 999, "REV_AT_EPOCH": 94901, "BSTAR": 0.00042231699, "MEAN_MOTION_DOT": 4.31e-06, "MEAN_MOTION_DDOT": 0}, "tle": {"line1": "1 30398U 99025ADM 25357.22110184  .00000431  00000+0  42232-3 0  9992", "line2": "2 30398  99.7144 254.0023 0172472 268.6628 246.8587 13.78708352949013"}}, "geometry": {"type": "Point", "coordinates": [82.40975743898692, 37.09985969833913]}}, {"type": "Feature", "properties": {"norad_id": 30400, "name": "FENGYUN 1C DEB", "group": "fengyun-1c-debris", "lat": 5.301798839257838, "lon": 106.75563877637431, "alt_km": 963.0112352451188, "timestamp": "2025-12-24T03:53:29.923293+00:00", "meta": {"OBJECT_NAME": "FENGYUN 1C DEB", "OBJECT_ID": "1999-025ADP", "EPOCH": "2025-12-21T19:06:59.829120", "MEAN_MOTION": 14.10117227, "ECCENTRICITY": 0.02260894, "INCLINATION": 99.1574, "RA_OF_ASC_NODE": 283.4884, "ARG_OF_PERICENTER": 310.7005, "MEAN_ANOMALY": 103.3906, "EPHEMERIS_TYPE": 0, "CLASSIFICATION_TYPE": "U", "NORAD_CAT_ID": 30400, "ELEMENT_SET_NO": 999, "REV_AT_EPOCH": 95642, "BSTAR": 0.0032320294, "MEAN_MOTION_DOT": 7.206e-05, "MEAN_MOTION_DDOT": 0}, "tle": {"line1": "1 30400U 99025ADP 25355.79652580  .00007206  00000+0  32320-2 0  9990", "line2": "2 30400  99.1574 283.4884 0226089 310.7005 103.3906 14.10117227956428"}}, "geometry": {"type": "Point", "coordinates": [106.75563877637431, 5.301798839257838]}}, {"type": "Feature", "properties": {"norad_id": 30401, "name": "FENGYUN 1C DEB", "group": "fengyun-1c-debris", "lat": -35.68688675291356, "lon": 48.834756741704105, "alt_km": 844.5869459864807, "timestamp": "2025-12-24T03:53:29.923303+00:00", "meta": {"OBJECT_NAME": "FENGYUN 1C DEB", "OBJECT_ID": "1999-025ADQ", "EPOCH": "2025-12-23T05:01:56.676000", "MEAN_MOTION": 14.27999235, "ECCENTRICITY": 0.010812, "INCLINATION": 98.9468, "RA_OF_ASC_NODE": 234.3559, "ARG_OF_PERICENTER": 97.3675, "MEAN_ANOMALY": 263.9807, "EPHEMERIS_TYPE": 0, "CLASSIFICATION_TYPE": "U", "NORAD_CAT_ID": 30401, "ELEMENT_SET_NO": 999, "REV_AT_EPOCH": 98453, "BSTAR": 0.00013820515, "MEAN_MOTION_DOT": 3.19e-06, "MEAN_MOTION_DDOT": 0}, "tle": {"line1": "1 30401U 99025ADQ 25357.20968375  .00000319  00000+0  13821-3 0  9995", "line2": "2 30401  98.9468 234.3559 0108120  97.3675 263.9807 14.27999235984539"}}, "geometry": {"type": "Point", "coordinates": [48.834756741704105, -35.68688675291356]}}, {"type": "Feature", "properties": {"norad_id": 30403, "name": "FENGYUN 1C DEB", "group": "fengyun-1c-debris", "lat": 55.80815284071922, "lon": -89.5310099713131, "alt_km": 851.2077597276912, "timestamp": "2025-12-24T03:53:29.923313+00:00", "meta": {"OBJECT_NAME": "FENGYUN 1C DEB", "OBJECT_ID": "1999-025ADS", "EPOCH": "2025-12-22T04:01:14.286144", "MEAN_MOTION": 14.21602223, "ECCENTRICITY": 0.00744384, "INCLINATION": 99.0592, "RA_OF_ASC_NODE": 74.8405, "ARG_OF_PERICENTER": 355.2225, "MEAN_ANOMALY": 4.8232, "EPHEMERIS_TYPE": 0, "CLASSIFICATION_TYPE": "U", "NORAD_CAT_ID": 30403, "ELEMENT_SET_NO": 999, "REV_AT_EPOCH": 96940, "BSTAR": 0.001726587, "MEAN_MOTION_DOT": 3.849e-05, "MEAN_MOTION_DDOT": 0}, "tle": {"line1": "1 30403U 99025ADS 25356.16752646  .00003849  00000+0  17266-2 0  9990", "line2": "2 30403  99.0592  74.8405 0074438 355.2225   4.8232 14.21602223969404"}}, "geometry": {"type": "Point", "coordinates": [-89.5310099713131, 55.80815284071922]}}, {"type": "Feature", "properties": {"norad_id": 30404, "name": "FENGYUN 1C DEB", "group": "fengyun-1c-debris", "lat": -29.629800114669802, "lon": -96.14828404411321, "alt_km": 1178.9776604019362, "timestamp": "2025-12-24T03:53:29.923323+00:00", "meta": {"OBJECT_NAME": "FENGYUN 1C DEB", "OBJECT_ID": "1999-025ADT", "EPOCH": "2025-12-19T23:54:32.428224", "MEAN_MOTION": 13.34354549, "ECCENTRICITY": 0.03762973, "INCLINATION": 99.8326, "RA_OF_ASC_NODE": 85.5019, "ARG_OF_PERICENTER": 119.2039, "MEAN_ANOMALY": 244.7273, "EPHEMERIS_TYPE": 0, "CLASSIFICATION_TYPE": "U", "NORAD_CAT_ID": 30404, "ELEMENT_SET_NO": 999, "REV_AT_EPOCH": 58133, "BSTAR": 0.00058436057, "MEAN_MOTION_DOT": 3.95e-06, "MEAN_MOTION_DDOT": 0}, "tle": {"line1": "1 30404U 99025ADT 25353.99620866  .00000395  00000+0  58436-3 0  9995", "line2": "2 30404  99.8326  85.5019 0376297 119.2039 244.7273 13.34354549581337"}}, "geometry": {"type": "Point", "coordinates": [-96.14828404411321, -29.629800114669802]}}, {"type": "Feature", "properties": {"norad_id": 30405, "name": "FENGYUN 1C DEB", "group": "fengyun-1c-debris", "lat": -61.929049911495184, "lon": -104.6286927312614, "alt_km": 821.3517436839074, "timestamp": "2025-12-24T03:53:29.923345+00:00", "meta": {"OBJECT_NAME": "FENGYUN 1C DEB", "OBJECT_ID": "1999-025ADU", "EPOCH": "2025-12-23T17:23:47.325120", "MEAN_MOTION": 14.29001773, "ECCENTRICITY": 0.0050918, "INCLINATION": 98.7933, "RA_OF_ASC_NODE": 91.8031, "ARG_OF_PERICENTER": 122.5857, "MEAN_ANOMALY": 31.7271, "EPHEMERIS_TYPE": 0, "CLASSIFICATION_TYPE": "U", "NORAD_CAT_ID": 30405, "ELEMENT_SET_NO": 999, "REV_AT_EPOCH": 97552, "BSTAR": 0.001594, "MEAN_MOTION_DOT": 4.046e-05, "MEAN_MOTION_DDOT": 0}, "tle": {"line1": "1 30405U 99025ADU 25357.72485330  .00004046  00000+0  15940-2 0  9995", "line2": "2 30405  98.7933  91.8031 0050918 122.5857  31.7271 14.29001773975521"}}, "geometry": {"type": "Point", "coordinates": [-104.6286927312614, -61.929049911495184]}}, {"type": "Feature", "properties": {"norad_id": 30406, "name": "FENGYUN 1C DEB", "group": "fengyun-1c-debris", "lat": -37.444467345867906, "lon": 60.799403991706114, "alt_km": 1119.6148517315542, "timestamp": "2025-12-24T03:53:29.923357+00:00", "meta": {"OBJECT_NAME": "FENGYUN 1C DEB", "OBJECT_ID": "1999-025ADV", "EPOCH": "2025-12-23T04:35:22.603776", "MEAN_MOTION": 13.59253722, "ECCENTRICITY": 0.02829898, "INCLINATION": 98.6211, "RA_OF_ASC_NODE": 246.6152, "ARG_OF_PERICENTER": 332.8096, "MEAN_ANOMALY": 179.5885, "EPHEMERIS_TYPE": 0, "CLASSIFICATION_TYPE": "U", "NORAD_CAT_ID": 30406, "ELEMENT_SET_NO": 999, "REV_AT_EPOCH": 93308, "BSTAR": 0.0020081766, "MEAN_MOTION_DOT": 1.888e-05, "MEAN_MOTION_DDOT": 0}, "tle": {"line1": "1 30406U 99025ADV 25357.19123384  .00001888  00000+0  20082-2 0  9999", "line2": "2 30406  98.6211 246.6152 0282989 332.8096 179.5885 13.59253722933082"}}, "geometry": {"type": "Point", "coordinates": [60.799403991706114, -37.444467345867906]}}, {"type": "Feature", "properties": {"norad_id": 30409, "name": "FENGYUN 1C DEB", "group": "fengyun-1c-debris", "lat": -8.649094090720382, "lon": -13.921213505116903, "alt_km": 768.8550906435839, "timestamp": "2025-12-24T03:53:29.923367+00:00", "meta": {"OBJECT_NAME": "FENGYUN 1C DEB", "OBJECT_ID": "1999-025ADY", "EPOCH": "2025-12-23T05:45:49.563936", "MEAN_MOTION": 14.03765565, "ECCENTRICITY": 0.01674823, "INCLINATION": 98.4742, "RA_OF_ASC_NODE": 343.9193, "ARG_OF_PERICENTER": 336.0449, "MEAN_ANOMALY": 37.9917, "EPHEMERIS_TYPE": 0, "CLASSIFICATION_TYPE": "U", "NORAD_CAT_ID": 30409, "ELEMENT_SET_NO": 999, "REV_AT_EPOCH": 96577, "BSTAR": 0.00076005579, "MEAN_MOTION_DOT": 1.314e-05, "MEAN_MOTION_DDOT": 0}, "tle": {"line1": "1 30409U 99025ADY 25357.24015699  .00001314  00000+0  76006-3 0  9999", "line2": "2 30409  98.4742 343.9193 0167482 336.0449  37.9917 14.03765565965773"}}, "geometry": {"type": "Point", "coordinates": [-13.921213505116903, -8.649094090720382]}}]}